QIANFAN-89              
1 63175U 25046S   25242.88990795  .00000212  00000+0  30878-3 0  9992
2 63175  88.9859 330.7539 0018142  70.9338 289.3776 13.50972368 33380
QIANFAN-90              
1 63176U 25046T   25242.91871529  .00000172  00000+0  24693-3 0  9993
2 63176  88.9860 330.7232 0015055  70.2324 290.0449 13.50971574 33408
